{
  "type": "FeatureCollection",
  "features": [
    {
      "type": "Feature",
      "properties": {
        "norad_id": 66642,
        "name": "STARLINK-35926",
        "group": "last-30-days",
        "lat": 52.5134283680059,
        "lon": -49.523958884350264,
        "alt_km": 354.48709483223047,
        "timestamp": "2025-12-08T08:58:59.558178+00:00",
        "meta_object_name": "STARLINK-35926",
        "meta_object_id": "2025-271AB",
        "meta_epoch": "2025-12-07T22:00:03.000096",
        "meta_mean_motion": 15.70796595,
        "meta_eccentricity": 7.078e-05,
        "meta_inclination": 53.1592,
        "meta_ra_of_asc_node": 210.5745,
        "meta_arg_of_pericenter": 89.0435,
        "meta_mean_anomaly": 300.7781,
        "meta_ephemeris_type": 0,
        "meta_classification_type": "U",
        "meta_norad_cat_id": 66642,
        "meta_element_set_no": 999,
        "meta_rev_at_epoch": 323,
        "meta_bstar": -0.017522265,
        "meta_mean_motion_dot": -0.01964221,
        "meta_mean_motion_ddot": 0,
        "tle_line1": "1 66642U 25271AB  25341.91670139 -.01964221  00000+0 -17522-1 0  9996",
        "tle_line2": "2 66642  53.1592 210.5745 0000707  89.0435 300.7781 15.70796595  3236"
      },
      "geometry": {
        "type": "Point",
        "coordinates": [
          -49.523958884350264,
          52.5134283680059
        ]
      }
    },
    {
      "type": "Feature",
      "properties": {
        "norad_id": 66643,
        "name": "STARLINK-35918",
        "group": "last-30-days",
        "lat": 52.99472934917462,
        "lon": -55.81174197089908,
        "alt_km": 354.4026310540512,
        "timestamp": "2025-12-08T08:58:59.558188+00:00",
        "meta_object_name": "STARLINK-35918",
        "meta_object_id": "2025-271AC",
        "meta_epoch": "2025-12-07T22:00:03.000096",
        "meta_mean_motion": 15.7079447,
        "meta_eccentricity": 7.261e-05,
        "meta_inclination": 53.159,
        "meta_ra_of_asc_node": 210.583,
        "meta_arg_of_pericenter": 84.3584,
        "meta_mean_anomaly": 301.6289,
        "meta_ephemeris_type": 0,
        "meta_classification_type": "U",
        "meta_norad_cat_id": 66643,
        "meta_element_set_no": 999,
        "meta_rev_at_epoch": 346,
        "meta_bstar": -0.017478693,
        "meta_mean_motion_dot": -0.01959764,
        "meta_mean_motion_ddot": 0,
        "tle_line1": "1 66643U 25271AC  25341.91670139 -.01959764  00000+0 -17479-1 0  9994",
        "tle_line2": "2 66643  53.1590 210.5830 0000726  84.3584 301.6289 15.70794470  3462"
      },
      "geometry": {
        "type": "Point",
        "coordinates": [
          -55.81174197089908,
          52.99472934917462
        ]
      }
    },
    {
      "type": "Feature",
      "properties": {
        "norad_id": 66644,
        "name": "STARLINK-35938",
        "group": "last-30-days",
        "lat": 52.79525214789931,
        "lon": -52.64531331525579,
        "alt_km": 354.4706104945926,
        "timestamp": "2025-12-08T08:58:59.558201+00:00",
        "meta_object_name": "STARLINK-35938",
        "meta_object_id": "2025-271AD",
        "meta_epoch": "2025-12-07T22:00:03.000096",
        "meta_mean_motion": 15.70749472,
        "meta_eccentricity": 6.673e-05,
        "meta_inclination": 53.159,
        "meta_ra_of_asc_node": 210.5785,
        "meta_arg_of_pericenter": 81.2564,
        "meta_mean_anomaly": 306.6834,
        "meta_ephemeris_type": 0,
        "meta_classification_type": "U",
        "meta_norad_cat_id": 66644,
        "meta_element_set_no": 999,
        "meta_rev_at_epoch": 346,
        "meta_bstar": -0.017060299,
        "meta_mean_motion_dot": -0.01914915,
        "meta_mean_motion_ddot": 0,
        "tle_line1": "1 66644U 25271AD  25341.91670139 -.01914915  00000+0 -17060-1 0  9990",
        "tle_line2": "2 66644  53.1590 210.5785 0000667  81.2564 306.6834 15.70749472  3463"
      },
      "geometry": {
        "type": "Point",
        "coordinates": [
          -52.64531331525579,
          52.79525214789931
        ]
      }
    },
    {
      "type": "Feature",
      "properties": {
        "norad_id": 66645,
        "name": "SHENZHOU-22",
        "group": "last-30-days",
        "lat": 41.41898062562178,
        "lon": 130.6233591786003,
        "alt_km": 384.4171195091112,
        "timestamp": "2025-12-08T08:58:59.558211+00:00",
        "meta_object_name": "SHENZHOU-22",
        "meta_object_id": "2025-272A",
        "meta_epoch": "2025-12-07T23:22:56.643744",
        "meta_mean_motion": 15.58863749,
        "meta_eccentricity": 0.00092535,
        "meta_inclination": 41.4683,
        "meta_ra_of_asc_node": 45.6321,
        "meta_arg_of_pericenter": 352.4121,
        "meta_mean_anomaly": 7.6575,
        "meta_ephemeris_type": 0,
        "meta_classification_type": "U",
        "meta_norad_cat_id": 66645,
        "meta_element_set_no": 999,
        "meta_rev_at_epoch": 26300,
        "meta_bstar": 0.00029193568,
        "meta_mean_motion_dot": 0.00023028,
        "meta_mean_motion_ddot": 0,
        "tle_line1": "1 66645U 25272A   25341.97426671  .00023028  00000+0  29194-3 0  9994",
        "tle_line2": "2 66645  41.4683  45.6321 0009253 352.4121   7.6575 15.58863749263000"
      },
      "geometry": {
        "type": "Point",
        "coordinates": [
          130.6233591786003,
          41.41898062562178
        ]
      }
    },
    {
      "type": "Feature",
      "properties": {
        "norad_id": 66646,
        "name": "CZ-2F R/B",
        "group": "last-30-days",
        "lat": -37.27696992986622,
        "lon": -23.4379876712709,
        "alt_km": 96.47308995047024,
        "timestamp": "2025-12-08T08:58:59.558222+00:00",
        "meta_object_name": "CZ-2F R/B",
        "meta_object_id": "2025-272B",
        "meta_epoch": "2025-12-07T13:00:15.028704",
        "meta_mean_motion": 16.47453798,
        "meta_eccentricity": 0.002214,
        "meta_inclination": 41.4535,
        "meta_ra_of_asc_node": 41.9834,
        "meta_arg_of_pericenter": 229.6731,
        "meta_mean_anomaly": 130.2205,
        "meta_ephemeris_type": 0,
        "meta_classification_type": "U",
        "meta_norad_cat_id": 66646,
        "meta_element_set_no": 999,
        "meta_rev_at_epoch": 200,
        "meta_bstar": 0.00015075,
        "meta_mean_motion_dot": 0.11903621,
        "meta_mean_motion_ddot": 8.0762e-06,
        "tle_line1": "1 66646U 25272B   25341.54184061  .11903621  80762-5  15075-3 0  9992",
        "tle_line2": "2 66646  41.4535  41.9834 0022140 229.6731 130.2205 16.47453798  2009"
      },
      "geometry": {
        "type": "Point",
        "coordinates": [
          -23.4379876712709,
          -37.27696992986622
        ]
      }
    },
    {
      "type": "Feature",
      "properties": {
        "norad_id": 66647,
        "name": "COSMOS 2597 (RODNIK-S 22)",
        "group": "last-30-days",
        "lat": 40.04379700888852,
        "lon": -64.48273476479274,
        "alt_km": 1496.2586369383944,
        "timestamp": "2025-12-08T08:58:59.558234+00:00",
        "meta_object_name": "COSMOS 2597 (RODNIK-S 22)",
        "meta_object_id": "2025-273A",
        "meta_epoch": "2025-12-07T23:05:57.172992",
        "meta_mean_motion": 12.41951155,
        "meta_eccentricity": 0.00079984,
        "meta_inclination": 82.4982,
        "meta_ra_of_asc_node": 289.4157,
        "meta_arg_of_pericenter": 300.5438,
        "meta_mean_anomaly": 59.4851,
        "meta_ephemeris_type": 0,
        "meta_classification_type": "U",
        "meta_norad_cat_id": 66647,
        "meta_element_set_no": 999,
        "meta_rev_at_epoch": 154,
        "meta_bstar": 9.4921565e-05,
        "meta_mean_motion_dot": 2.3e-07,
        "meta_mean_motion_ddot": 0,
        "tle_line1": "1 66647U 25273A   25341.96246728  .00000023  00000+0  94922-4 0  9991",
        "tle_line2": "2 66647  82.4982 289.4157 0007998 300.5438  59.4851 12.41951155  1542"
      },
      "geometry": {
        "type": "Point",
        "coordinates": [
          -64.48273476479274,
          40.04379700888852
        ]
      }
    },
    {
      "type": "Feature",
      "properties": {
        "norad_id": 66648,
        "name": "COSMOS 2598 (RODNIK-S 23)",
        "group": "last-30-days",
        "lat": 58.57219943329232,
        "lon": -58.392246850938356,
        "alt_km": 1494.0552072119735,
        "timestamp": "2025-12-08T08:58:59.558245+00:00",
        "meta_object_name": "COSMOS 2598 (RODNIK-S 23)",
        "meta_object_id": "2025-273B",
        "meta_epoch": "2025-12-07T23:00:16.822656",
        "meta_mean_motion": 12.42861589,
        "meta_eccentricity": 0.00072523,
        "meta_inclination": 82.503,
        "meta_ra_of_asc_node": 289.4228,
        "meta_arg_of_pericenter": 262.8168,
        "meta_mean_anomaly": 97.2087,
        "meta_ephemeris_type": 0,
        "meta_classification_type": "U",
        "meta_norad_cat_id": 66648,
        "meta_element_set_no": 999,
        "meta_rev_at_epoch": 154,
        "meta_bstar": 4.8509881e-05,
        "meta_mean_motion_dot": 1.7e-07,
        "meta_mean_motion_ddot": 0,
        "tle_line1": "1 66648U 25273B   25341.95852804  .00000017  00000+0  48510-4 0  9994",
        "tle_line2": "2 66648  82.5030 289.4228 0007252 262.8168  97.2087 12.42861589  1543"
      },
      "geometry": {
        "type": "Point",
        "coordinates": [
          -58.392246850938356,
          58.57219943329232
        ]
      }
    }
  ]
}